[{"OBJECT_NAME":"TIANMU-1 10","OBJECT_ID":"2023-101D","EPOCH":"2026-03-09T23:06:46.939392","MEAN_MOTION":15.2921896,"ECCENTRICITY":0.00069292,"INCLINATION":97.2749,"RA_OF_ASC_NODE":122.1027,"ARG_OF_PERICENTER":133.6162,"MEAN_ANOMALY":226.5654,"EPHEMERIS_TYPE":0,"CLASSIFICATION_TYPE":"U","NORAD_CAT_ID":57402,"ELEMENT_SET_NO":999,"REV_AT_EPOCH":14647,"BSTAR":0.00032238884,"MEAN_MOTION_DOT":9.075e-5,"MEAN_MOTION_DDOT":0},{"OBJECT_NAME":"STARLINK-35304","OBJECT_ID":"2025-245R","EPOCH":"2026-03-09T20:29:56.392224","MEAN_MOTION":15.30223002,"ECCENTRICITY":0.0002231,"INCLINATION":53.1587,"RA_OF_ASC_NODE":282.9916,"ARG_OF_PERICENTER":154.6324,"MEAN_ANOMALY":205.4787,"EPHEMERIS_TYPE":0,"CLASSIFICATION_TYPE":"U","NORAD_CAT_ID":66249,"ELEMENT_SET_NO":999,"REV_AT_EPOCH":2106,"BSTAR":0.0014180647,"MEAN_MOTION_DOT":0.00041908,"MEAN_MOTION_DDOT":0}]
